CCSDS_OMM_VERS = 2.0
CREATION_DATE  = 
ORIGINATOR     = 

OBJECT_NAME    = STARLINK-36344
OBJECT_ID      = 2026-025T
CENTER_NAME    = EARTH
REF_FRAME      = TEME
TIME_SYSTEM    = UTC
MEAN_ELEMENT_THEORY = SGP/SGP4

EPOCH          = 2026-03-06T06:00:43.284672
MEAN_MOTION    = 15.75343733
ECCENTRICITY   = .00017223
INCLINATION    = 97.2843
RA_OF_ASC_NODE = 176.7346
ARG_OF_PERICENTER = 136.4996
MEAN_ANOMALY   = 223.6406

EPHEMERIS_TYPE = 0
CLASSIFICATION_TYPE = U
NORAD_CAT_ID   = 67710
ELEMENT_SET_NO = 999
REV_AT_EPOCH   = 541
BSTAR          = .25668507E-2
MEAN_MOTION_DOT = .404094E-2
MEAN_MOTION_DDOT = 0

CCSDS_OMM_VERS = 2.0
CREATION_DATE  = 
ORIGINATOR     = 

OBJECT_NAME    = STARLINK-36687
OBJECT_ID      = 2026-025U
CENTER_NAME    = EARTH
REF_FRAME      = TEME
TIME_SYSTEM    = UTC
MEAN_ELEMENT_THEORY = SGP/SGP4

EPOCH          = 2026-03-06T07:06:31.925376
MEAN_MOTION    = 15.80870832
ECCENTRICITY   = .00021644
INCLINATION    = 97.2852
RA_OF_ASC_NODE = 176.8238
ARG_OF_PERICENTER = 358.7010
MEAN_ANOMALY   = 1.4252

EPHEMERIS_TYPE = 0
CLASSIFICATION_TYPE = U
NORAD_CAT_ID   = 67711
ELEMENT_SET_NO = 999
REV_AT_EPOCH   = 542
BSTAR          = .10447993E-2
MEAN_MOTION_DOT = .205288E-2
MEAN_MOTION_DDOT = 0

CCSDS_OMM_VERS = 2.0
CREATION_DATE  = 
ORIGINATOR     = 

OBJECT_NAME    = STARLINK-36705
OBJECT_ID      = 2026-025V
CENTER_NAME    = EARTH
REF_FRAME      = TEME
TIME_SYSTEM    = UTC
MEAN_ELEMENT_THEORY = SGP/SGP4

EPOCH          = 2026-03-06T06:12:24.663456
MEAN_MOTION    = 15.75315574
ECCENTRICITY   = .00009776
INCLINATION    = 97.2859
RA_OF_ASC_NODE = 176.7196
ARG_OF_PERICENTER = 100.2586
MEAN_ANOMALY   = 259.8789

EPHEMERIS_TYPE = 0
CLASSIFICATION_TYPE = U
NORAD_CAT_ID   = 67712
ELEMENT_SET_NO = 999
REV_AT_EPOCH   = 540
BSTAR          = .22827635E-2
MEAN_MOTION_DOT = .356927E-2
MEAN_MOTION_DDOT = 0

CCSDS_OMM_VERS = 2.0
CREATION_DATE  = 
ORIGINATOR     = 

OBJECT_NAME    = STARLINK-36708
OBJECT_ID      = 2026-025W
CENTER_NAME    = EARTH
REF_FRAME      = TEME
TIME_SYSTEM    = UTC
MEAN_ELEMENT_THEORY = SGP/SGP4

EPOCH          = 2026-03-06T20:00:00.999360
MEAN_MOTION    = 15.64594060
ECCENTRICITY   = .0001859
INCLINATION    = 97.2849
RA_OF_ASC_NODE = 177.3749
ARG_OF_PERICENTER = 67.9999
MEAN_ANOMALY   = 64.4394

EPHEMERIS_TYPE = 0
CLASSIFICATION_TYPE = U
NORAD_CAT_ID   = 67713
ELEMENT_SET_NO = 999
REV_AT_EPOCH   = 546
BSTAR          = -.25246E-1
MEAN_MOTION_DOT = -.2123459E-1
MEAN_MOTION_DDOT = 0

CCSDS_OMM_VERS = 2.0
CREATION_DATE  = 
ORIGINATOR     = 

OBJECT_NAME    = STARLINK-36702
OBJECT_ID      = 2026-025X
CENTER_NAME    = EARTH
REF_FRAME      = TEME
TIME_SYSTEM    = UTC
MEAN_ELEMENT_THEORY = SGP/SGP4

EPOCH          = 2026-03-06T20:00:00.999360
MEAN_MOTION    = 15.75247309
ECCENTRICITY   = .0000612
INCLINATION    = 97.2857
RA_OF_ASC_NODE = 177.4032
ARG_OF_PERICENTER = 84.9034
MEAN_ANOMALY   = 114.0614

EPHEMERIS_TYPE = 0
CLASSIFICATION_TYPE = U
NORAD_CAT_ID   = 67714
ELEMENT_SET_NO = 999
REV_AT_EPOCH   = 519
BSTAR          = -.66562E-3
MEAN_MOTION_DOT = -.98512E-3
MEAN_MOTION_DDOT = 0

CCSDS_OMM_VERS = 2.0
CREATION_DATE  = 
ORIGINATOR     = 

OBJECT_NAME    = STARLINK-36718
OBJECT_ID      = 2026-025Y
CENTER_NAME    = EARTH
REF_FRAME      = TEME
TIME_SYSTEM    = UTC
MEAN_ELEMENT_THEORY = SGP/SGP4

EPOCH          = 2026-03-06T06:44:53.794752
MEAN_MOTION    = 15.80987205
ECCENTRICITY   = .00010518
INCLINATION    = 97.2862
RA_OF_ASC_NODE = 176.8433
ARG_OF_PERICENTER = 95.7163
MEAN_ANOMALY   = 264.4225

EPHEMERIS_TYPE = 0
CLASSIFICATION_TYPE = U
NORAD_CAT_ID   = 67715
ELEMENT_SET_NO = 999
REV_AT_EPOCH   = 541
BSTAR          = .17945599E-2
MEAN_MOTION_DOT = .361034E-2
MEAN_MOTION_DDOT = 0

CCSDS_OMM_VERS = 2.0
CREATION_DATE  = 
ORIGINATOR     = 

OBJECT_NAME    = STARLINK-36715
OBJECT_ID      = 2026-025Z
CENTER_NAME    = EARTH
REF_FRAME      = TEME
TIME_SYSTEM    = UTC
MEAN_ELEMENT_THEORY = SGP/SGP4

EPOCH          = 2026-03-06T06:47:51.857376
MEAN_MOTION    = 15.80935017
ECCENTRICITY   = .00012748
INCLINATION    = 97.2865
RA_OF_ASC_NODE = 176.8430
ARG_OF_PERICENTER = 54.9262
MEAN_ANOMALY   = 305.2126

EPHEMERIS_TYPE = 0
CLASSIFICATION_TYPE = U
NORAD_CAT_ID   = 67716
ELEMENT_SET_NO = 999
REV_AT_EPOCH   = 541
BSTAR          = .16293459E-2
MEAN_MOTION_DOT = .325658E-2
MEAN_MOTION_DDOT = 0

CCSDS_OMM_VERS = 2.0
CREATION_DATE  = 
ORIGINATOR     = 

OBJECT_NAME    = STARLINK-36385
OBJECT_ID      = 2026-025AA
CENTER_NAME    = EARTH
REF_FRAME      = TEME
TIME_SYSTEM    = UTC
MEAN_ELEMENT_THEORY = SGP/SGP4

EPOCH          = 2026-03-06T06:56:52.342080
MEAN_MOTION    = 15.80863149
ECCENTRICITY   = .00024699
INCLINATION    = 97.2859
RA_OF_ASC_NODE = 176.8330
ARG_OF_PERICENTER = 351.3086
MEAN_ANOMALY   = 8.8139

EPHEMERIS_TYPE = 0
CLASSIFICATION_TYPE = U
NORAD_CAT_ID   = 67717
ELEMENT_SET_NO = 999
REV_AT_EPOCH   = 541
BSTAR          = .10506344E-2
MEAN_MOTION_DOT = .206394E-2
MEAN_MOTION_DDOT = 0

CCSDS_OMM_VERS = 2.0
CREATION_DATE  = 
ORIGINATOR     = 

OBJECT_NAME    = CZ-2F DEB
OBJECT_ID      = 2026-024E
CENTER_NAME    = EARTH
REF_FRAME      = TEME
TIME_SYSTEM    = UTC
MEAN_ELEMENT_THEORY = SGP/SGP4

EPOCH          = 2026-03-05T22:33:30.313152
MEAN_MOTION    = 15.23940381
ECCENTRICITY   = .02369853
INCLINATION    = 50.3188
RA_OF_ASC_NODE = 37.1031
ARG_OF_PERICENTER = 265.1895
MEAN_ANOMALY   = 92.1970

EPHEMERIS_TYPE = 0
CLASSIFICATION_TYPE = U
NORAD_CAT_ID   = 67718
ELEMENT_SET_NO = 999
REV_AT_EPOCH   = 406
BSTAR          = .40707196E-2
MEAN_MOTION_DOT = .230629E-2
MEAN_MOTION_DDOT = 0

CCSDS_OMM_VERS = 2.0
CREATION_DATE  = 
ORIGINATOR     = 

OBJECT_NAME    = CZ-2F DEB
OBJECT_ID      = 2026-024F
CENTER_NAME    = EARTH
REF_FRAME      = TEME
TIME_SYSTEM    = UTC
MEAN_ELEMENT_THEORY = SGP/SGP4

EPOCH          = 2026-03-06T14:57:47.690496
MEAN_MOTION    = 15.02698338
ECCENTRICITY   = .03140371
INCLINATION    = 49.7930
RA_OF_ASC_NODE = 36.7004
ARG_OF_PERICENTER = 259.1583
MEAN_ANOMALY   = 97.3875

EPHEMERIS_TYPE = 0
CLASSIFICATION_TYPE = U
NORAD_CAT_ID   = 67719
ELEMENT_SET_NO = 999
REV_AT_EPOCH   = 378
BSTAR          = .39969323E-2
MEAN_MOTION_DOT = .167047E-2
MEAN_MOTION_DDOT = 0

CCSDS_OMM_VERS = 2.0
CREATION_DATE  = 
ORIGINATOR     = 

OBJECT_NAME    = CZ-2F DEB
OBJECT_ID      = 2026-024G
CENTER_NAME    = EARTH
REF_FRAME      = TEME
TIME_SYSTEM    = UTC
MEAN_ELEMENT_THEORY = SGP/SGP4

EPOCH          = 2026-03-06T09:44:27.242304
MEAN_MOTION    = 14.99894984
ECCENTRICITY   = .03251923
INCLINATION    = 49.8328
RA_OF_ASC_NODE = 38.3346
ARG_OF_PERICENTER = 254.3954
MEAN_ANOMALY   = 102.0882

EPHEMERIS_TYPE = 0
CLASSIFICATION_TYPE = U
NORAD_CAT_ID   = 67720
ELEMENT_SET_NO = 999
REV_AT_EPOCH   = 406
BSTAR          = .34504951E-2
MEAN_MOTION_DOT = .139708E-2
MEAN_MOTION_DDOT = 0

CCSDS_OMM_VERS = 2.0
CREATION_DATE  = 
ORIGINATOR     = 

OBJECT_NAME    = STARLINK-36772
OBJECT_ID      = 2026-026A
CENTER_NAME    = EARTH
REF_FRAME      = TEME
TIME_SYSTEM    = UTC
MEAN_ELEMENT_THEORY = SGP/SGP4

EPOCH          = 2026-03-06T20:00:00.999360
MEAN_MOTION    = 15.58324836
ECCENTRICITY   = .0001774
INCLINATION    = 97.2845
RA_OF_ASC_NODE = 120.3035
ARG_OF_PERICENTER = 62.7716
MEAN_ANOMALY   = 50.1057

EPHEMERIS_TYPE = 0
CLASSIFICATION_TYPE = U
NORAD_CAT_ID   = 67721
ELEMENT_SET_NO = 999
REV_AT_EPOCH   = 485
BSTAR          = -.29508E-1
MEAN_MOTION_DOT = -.1966617E-1
MEAN_MOTION_DDOT = 0

